{"type": "FeatureCollection", "features": [ {"type": "Feature", "properties": {"norad_id": 34529, "name": "IRIDIUM 33 DEB", "group": "iridium-33-debris", "lat": -57.49109644373821, "lon": 32.2248183972814, "alt_km": 764.3912105015288, "timestamp": "2025-12-06T18:50:10.554448+00:00", "meta": {"OBJECT_NAME": "IRIDIUM 33 DEB", "OBJECT_ID": "1997-051HW", "EPOCH": "2025-12-06T02:26:00.477888", "MEAN_MOTION": 14.40607613, "ECCENTRICITY": 0.000399, "INCLINATION": 86.3646, "RA_OF_ASC_NODE": 38.2414, "ARG_OF_PERICENTER": 199.9181, "MEAN_ANOMALY": 160.1863, "EPHEMERIS_TYPE": 0, "CLASSIFICATION_TYPE": "U", "NORAD_CAT_ID": 34529, "ELEMENT_SET_NO": 999, "REV_AT_EPOCH": 88046, "BSTAR": 0.00021681018, "MEAN_MOTION_DOT": 7.11e-06, "MEAN_MOTION_DDOT": 0}, "tle": {"line1": "1 34529U 97051HW  25340.10139442  .00000711  00000+0  21681-3 0  9992", "line2": "2 34529  86.3646  38.2414 0003990 199.9181 160.1863 14.40607613880462"}}, "geometry": {"type": "Point", "coordinates": [32.2248183972814, -57.49109644373821]}}, {"type": "Feature", "properties": {"norad_id": 34538, "name": "IRIDIUM 33 DEB", "group": "iridium-33-debris", "lat": 82.2458653830758, "lon": 159.60128465141557, "alt_km": 750.1396935104431, "timestamp": "2025-12-06T18:50:10.554458+00:00", "meta": {"OBJECT_NAME": "IRIDIUM 33 DEB", "OBJECT_ID": "1997-051JF", "EPOCH": "2025-12-06T08:27:05.441184", "MEAN_MOTION": 14.42592523, "ECCENTRICITY": 0.00336215, "INCLINATION": 86.2774, "RA_OF_ASC_NODE": 8.3539, "ARG_OF_PERICENTER": 349.5776, "MEAN_ANOMALY": 21.1302, "EPHEMERIS_TYPE": 0, "CLASSIFICATION_TYPE": "U", "NORAD_CAT_ID": 34538, "ELEMENT_SET_NO": 999, "REV_AT_EPOCH": 87664, "BSTAR": 0.0017279991, "MEAN_MOTION_DOT": 5.794e-05, "MEAN_MOTION_DDOT": 0}, "tle": {"line1": "1 34538U 97051JF  25340.35214631  .00005794  00000+0  17280-2 0  9998", "line2": "2 34538  86.2774   8.3539 0033621 349.5776  21.1302 14.42592523876640"}}, "geometry": {"type": "Point", "coordinates": [159.60128465141557, 82.2458653830758]}}, {"type": "Feature", "properties": {"norad_id": 34540, "name": "IRIDIUM 33 DEB", "group": "iridium-33-debris", "lat": 3.1384260605907652, "lon": 130.12573602432045, "alt_km": 636.7502985145793, "timestamp": "2025-12-06T18:50:10.554482+00:00", "meta": {"OBJECT_NAME": "IRIDIUM 33 DEB", "OBJECT_ID": "1997-051JH", "EPOCH": "2025-12-05T16:47:20.617152", "MEAN_MOTION": 14.75090008, "ECCENTRICITY": 0.00152233, "INCLINATION": 86.3098, "RA_OF_ASC_NODE": 310.8245, "ARG_OF_PERICENTER": 184.7757, "MEAN_ANOMALY": 352.3663, "EPHEMERIS_TYPE": 0, "CLASSIFICATION_TYPE": "U", "NORAD_CAT_ID": 34540, "ELEMENT_SET_NO": 999, "REV_AT_EPOCH": 88917, "BSTAR": 0.003042779, "MEAN_MOTION_DOT": 0.00020606, "MEAN_MOTION_DDOT": 0}, "tle": {"line1": "1 34540U 97051JH  25339.69954418  .00020606  00000+0  30428-2 0  9998", "line2": "2 34540  86.3098 310.8245 0015223 184.7757 352.3663 14.75090008889172"}}, "geometry": {"type": "Point", "coordinates": [130.12573602432045, 3.1384260605907652]}}, {"type": "Feature", "properties": {"norad_id": 34648, "name": "IRIDIUM 33 DEB", "group": "iridium-33-debris", "lat": -68.58763932152726, "lon": 113.61096451197956, "alt_km": 811.3051378646032, "timestamp": "2025-12-06T18:50:10.554496+00:00", "meta": {"OBJECT_NAME": "IRIDIUM 33 DEB", "OBJECT_ID": "1997-051JZ", "EPOCH": "2025-12-05T14:25:00.080832", "MEAN_MOTION": 14.11133288, "ECCENTRICITY": 0.01851844, "INCLINATION": 86.391, "RA_OF_ASC_NODE": 284.8271, "ARG_OF_PERICENTER": 321.0123, "MEAN_ANOMALY": 37.7826, "EPHEMERIS_TYPE": 0, "CLASSIFICATION_TYPE": "U", "NORAD_CAT_ID": 34648, "ELEMENT_SET_NO": 999, "REV_AT_EPOCH": 84860, "BSTAR": 0.014281449, "MEAN_MOTION_DOT": 0.00030319, "MEAN_MOTION_DDOT": 0}, "tle": {"line1": "1 34648U 97051JZ  25339.60069538  .00030319  00000+0  14281-1 0  9998", "line2": "2 34648  86.3910 284.8271 0185184 321.0123  37.7826 14.11133288848606"}}, "geometry": {"type": "Point", "coordinates": [113.61096451197956, -68.58763932152726]}}, {"type": "Feature", "properties": {"norad_id": 34651, "name": "IRIDIUM 33 DEB", "group": "iridium-33-debris", "lat": 1.3949563733570904, "lon": 143.20003795799732, "alt_km": 885.0777837582855, "timestamp": "2025-12-06T18:50:10.554507+00:00", "meta": {"OBJECT_NAME": "IRIDIUM 33 DEB", "OBJECT_ID": "1997-051KC", "EPOCH": "2025-12-05T22:36:55.219392", "MEAN_MOTION": 14.25637753, "ECCENTRICITY": 0.01419171, "INCLINATION": 86.2829, "RA_OF_ASC_NODE": 143.4677, "ARG_OF_PERICENTER": 225.5331, "MEAN_ANOMALY": 133.4185, "EPHEMERIS_TYPE": 0, "CLASSIFICATION_TYPE": "U", "NORAD_CAT_ID": 34651, "ELEMENT_SET_NO": 999, "REV_AT_EPOCH": 85799, "BSTAR": 0.005033692, "MEAN_MOTION_DOT": 0.00013284, "MEAN_MOTION_DDOT": 0}, "tle": {"line1": "1 34651U 97051KC  25339.94230578  .00013284  00000+0  50337-2 0  9998", "line2": "2 34651  86.2829 143.4677 0141917 225.5331 133.4185 14.25637753857998"}}, "geometry": {"type": "Point", "coordinates": [143.20003795799732, 1.3949563733570904]}}, {"type": "Feature", "properties": {"norad_id": 34652, "name": "IRIDIUM 33 DEB", "group": "iridium-33-debris", "lat": -4.900448026845466, "lon": -17.6618858999046, "alt_km": 675.0708716114759, "timestamp": "2025-12-06T18:50:10.554517+00:00", "meta": {"OBJECT_NAME": "IRIDIUM 33 DEB", "OBJECT_ID": "1997-051KD", "EPOCH": "2025-12-05T06:47:28.910400", "MEAN_MOTION": 14.6194715, "ECCENTRICITY": 0.00267279, "INCLINATION": 86.3306, "RA_OF_ASC_NODE": 343.3218, "ARG_OF_PERICENTER": 325.0807, "MEAN_ANOMALY": 50.6373, "EPHEMERIS_TYPE": 0, "CLASSIFICATION_TYPE": "U", "NORAD_CAT_ID": 34652, "ELEMENT_SET_NO": 999, "REV_AT_EPOCH": 88375, "BSTAR": 0.0018811698, "MEAN_MOTION_DOT": 9.492e-05, "MEAN_MOTION_DDOT": 0}, "tle": {"line1": "1 34652U 97051KD  25339.28297350  .00009492  00000+0  18812-2 0  9995", "line2": "2 34652  86.3306 343.3218 0026727 325.0807  50.6373 14.61947150883754"}}, "geometry": {"type": "Point", "coordinates": [-17.6618858999046, -4.900448026845466]}}, {"type": "Feature", "properties": {"norad_id": 34690, "name": "IRIDIUM 33 DEB", "group": "iridium-33-debris", "lat": 6.136127220692243, "lon": 39.96978032655566, "alt_km": 705.1065163205249, "timestamp": "2025-12-06T18:50:10.554527+00:00", "meta": {"OBJECT_NAME": "IRIDIUM 33 DEB", "OBJECT_ID": "1997-051KM", "EPOCH": "2025-12-05T05:07:04.785312", "MEAN_MOTION": 14.55051508, "ECCENTRICITY": 0.00116101, "INCLINATION": 86.3789, "RA_OF_ASC_NODE": 40.2624, "ARG_OF_PERICENTER": 51.712, "MEAN_ANOMALY": 7.605, "EPHEMERIS_TYPE": 0, "CLASSIFICATION_TYPE": "U", "NORAD_CAT_ID": 34690, "ELEMENT_SET_NO": 999, "REV_AT_EPOCH": 87985, "BSTAR": 0.00091494528, "MEAN_MOTION_DOT": 3.967e-05, "MEAN_MOTION_DDOT": 0}, "tle": {"line1": "1 34690U 97051KM  25339.21324983  .00003967  00000+0  91495-3 0  9993", "line2": "2 34690  86.3789  40.2624 0011610  51.7120   7.6050 14.55051508879857"}}, "geometry": {"type": "Point", "coordinates": [39.96978032655566, 6.136127220692243]}}, {"type": "Feature", "properties": {"norad_id": 34693, "name": "IRIDIUM 33 DEB", "group": "iridium-33-debris", "lat": -42.00609489427483, "lon": -56.55757817404049, "alt_km": 496.85764212353206, "timestamp": "2025-12-06T18:50:10.554538+00:00", "meta": {"OBJECT_NAME": "IRIDIUM 33 DEB", "OBJECT_ID": "1997-051KQ", "EPOCH": "2025-12-05T16:30:41.219712", "MEAN_MOTION": 15.25520042, "ECCENTRICITY": 0.00157455, "INCLINATION": 86.3065, "RA_OF_ASC_NODE": 307.3204, "ARG_OF_PERICENTER": 63.4538, "MEAN_ANOMALY": 354.1947, "EPHEMERIS_TYPE": 0, "CLASSIFICATION_TYPE": "U", "NORAD_CAT_ID": 34693, "ELEMENT_SET_NO": 999, "REV_AT_EPOCH": 88807, "BSTAR": 0.0071412513, "MEAN_MOTION_DOT": 0.00185757, "MEAN_MOTION_DDOT": 0}, "tle": {"line1": "1 34693U 97051KQ  25339.68797708  .00185757  00000+0  71413-2 0  9991", "line2": "2 34693  86.3065 307.3204 0015745  63.4538 354.1947 15.25520042888075"}}, "geometry": {"type": "Point", "coordinates": [-56.55757817404049, -42.00609489427483]}}, {"type": "Feature", "properties": {"norad_id": 34696, "name": "IRIDIUM 33 DEB", "group": "iridium-33-debris", "lat": -63.42586685318355, "lon": 22.628454056325136, "alt_km": 701.8625315163281, "timestamp": "2025-12-06T18:50:10.554548+00:00", "meta": {"OBJECT_NAME": "IRIDIUM 33 DEB", "OBJECT_ID": "1997-051KT", "EPOCH": "2025-12-06T02:52:04.787040", "MEAN_MOTION": 14.64542505, "ECCENTRICITY": 0.00743833, "INCLINATION": 86.1861, "RA_OF_ASC_NODE": 30.6015, "ARG_OF_PERICENTER": 190.2321, "MEAN_ANOMALY": 199.6062, "EPHEMERIS_TYPE": 0, "CLASSIFICATION_TYPE": "U", "NORAD_CAT_ID": 34696, "ELEMENT_SET_NO": 999, "REV_AT_EPOCH": 86576, "BSTAR": 0.0082420437, "MEAN_MOTION_DOT": 0.00045777, "MEAN_MOTION_DDOT": 0}, "tle": {"line1": "1 34696U 97051KT  25340.11949985  .00045777  00000+0  82420-2 0  9997", "line2": "2 34696  86.1861  30.6015 0074383 190.2321 199.6062 14.64542505865769"}}, "geometry": {"type": "Point", "coordinates": [22.628454056325136, -63.42586685318355]}}, {"type": "Feature", "properties": {"norad_id": 34765, "name": "IRIDIUM 33 DEB", "group": "iridium-33-debris", "lat": -11.822899314246836, "lon": 34.54828699648277, "alt_km": 765.9555950728045, "timestamp": "2025-12-06T18:50:10.554559+00:00", "meta": {"OBJECT_NAME": "IRIDIUM 33 DEB", "OBJECT_ID": "1997-051LJ", "EPOCH": "2025-12-05T11:30:48.073248", "MEAN_MOTION": 14.40435892, "ECCENTRICITY": 0.00147835, "INCLINATION": 86.3394, "RA_OF_ASC_NODE": 35.8759, "ARG_OF_PERICENTER": 237.5121, "MEAN_ANOMALY": 187.0944, "EPHEMERIS_TYPE": 0, "CLASSIFICATION_TYPE": "U", "NORAD_CAT_ID": 34765, "ELEMENT_SET_NO": 999, "REV_AT_EPOCH": 87509, "BSTAR": 0.00075713692, "MEAN_MOTION_DOT": 2.427e-05, "MEAN_MOTION_DDOT": 0}, "tle": {"line1": "1 34765U 97051LJ  25339.47972307  .00002427  00000+0  75714-3 0  9999", "line2": "2 34765  86.3394  35.8759 0014783 237.5121 187.0944 14.40435892875093"}}, "geometry": {"type": "Point", "coordinates": [34.54828699648277, -11.822899314246836]}}]}